ORBCOMM FM05            
1 25117U 97084F   24197.38271483  .00002883  00000+0  89390-3 0  9995
2 25117  45.0134 181.9432 0004500 323.2437  36.8104 14.43061053391907
ORBCOMM FM07            
1 25119U 97084H   24197.33405278  .00002946  00000+0  91274-3 0  9997
2 25119  45.0123 182.8860 0005263 317.5015  42.5427 14.43045951392808
ORBCOMM FM03            
1 25158U 98007B   24197.51945905  .00002083  00000+0  80756-3 0  9997
2 25158 107.9704 164.8858 0045499 117.0446 243.5347 14.32429332375797
ORBCOMM FM17            
1 25413U 98046A   24197.57038337  .00001684  00000+0  65592-3 0  9999
2 25413  44.9959  44.3589 0001735 332.8764  27.1991 14.33373483354841
ORBCOMM FM18            
1 25414U 98046B   24197.50525017  .00002414  00000+0  86742-3 0  9991
2 25414  44.9942 330.3364 0002336  17.0424 343.0501 14.36217936355971
